STARLINK-5811           
1 55787U 23028AY  26158.75335067 -.00000366  00000+0 -22867-4 0  9990
2 55787  69.9992 337.5028 0002794 269.4261  90.6578 14.98327898180517
STARLINK-5804           
1 55788U 23028AZ  26158.74919779  .00000655  00000+0  62721-4 0  9990
2 55788  69.9990 337.4882 0002565 263.9197  96.1669 14.98326137180513
STARLINK-5815           
1 55789U 23028BA  26158.79089060 -.00000107  00000+0 -11851-5 0  9990
2 55789  69.9993 337.2311 0002884 271.5212  88.5616 14.98328699180522
STARLINK-5813           
1 55790U 23028BB  26158.66170882  .00000135  00000+0  19109-4 0  9993
2 55790  69.9995 337.5840 0002982 268.7919  91.2898 14.98329941180509
STARLINK-5807           
1 55791U 23028BC  26158.74082966 -.00001042  00000+0 -79548-4 0  9991
2 55791  69.9996 337.4587 0003010 267.9176  92.1638 14.98337322180512
ONEWEB-0530             
1 55796U 23029A   26158.69609082 -.00000012  00000+0 -60425-4 0  9995
2 55796  87.9180 276.3616 0002349  95.4532 264.6869 13.20770789159891
ONEWEB-0534             
1 55797U 23029B   26158.76005831  .00000028  00000+0  37173-4 0  9995
2 55797  87.9184 276.3493 0001802  98.2259 261.9079 13.20771145159901
ONEWEB-0556             
1 55798U 23029C   26158.69104779 -.00000017  00000+0 -73121-4 0  9992
2 55798  87.9179 276.3628 0001956  75.0451 285.0898 13.20772396159896
ONEWEB-0562             
1 55799U 23029D   26158.75331737  .00000104  00000+0  22424-3 0  9990
2 55799  87.9180 276.3313 0002519  84.3212 275.8208 13.20770616159901
ONEWEB-0563             
1 55800U 23029E   26158.74828285  .00000038  00000+0  61152-4 0  9999
2 55800  87.9179 276.3627 0001706  99.6657 260.4669 13.20771895159898
ONEWEB-0564             
1 55801U 23029F   26158.74154367  .00000121  00000+0  26683-3 0  9995
2 55801  87.9184 276.3375 0002252  93.1308 267.0083 13.20770867159907
ONEWEB-0638             
1 55802U 23029G   26158.72611463 -.00000032  00000+0 -11968-3 0  9992
2 55802  87.8946 291.6390 0001943  83.2085 276.9266 13.14501645158155
ONEWEB-0639             
1 55803U 23029H   26158.70645014  .00000105  00000+0  22926-3 0  9995
2 55803  87.9162 306.8655 0000906 111.4606 248.6623 13.19725235157656
ONEWEB-0640             
1 55804U 23029J   26158.73562793  .00000213  00000+0  53901-3 0  9998
2 55804  87.8950 291.6279 0001629  77.9481 282.1831 13.14502109158174
ONEWEB-0641             
1 55805U 23029K   26158.70170094  .00000071  00000+0  14505-3 0  9994
2 55805  87.9168 306.8548 0001669  99.2959 260.8362 13.19724258157667
ONEWEB-0642             
1 55806U 23029L   26158.39370050 -.00000078  00000+0 -22733-3 0  9995
2 55806  87.9157 306.9288 0001176 118.8337 241.2914 13.19725092157617
ONEWEB-0643             
1 55807U 23029M   26158.32491218 -.00000058  00000+0 -19220-3 0  9994
2 55807  87.8946 291.6971 0001532 120.2257 239.9024 13.14503055158093
ONEWEB-0644             
1 55808U 23029N   26158.38895432  .00000018  00000+0  12465-4 0  9996
2 55808  87.9162 306.9314 0001557 104.3313 255.7992 13.19724340157613
ONEWEB-0645             
1 55809U 23029P   26158.63851623  .00000023  00000+0  25777-4 0  9995
2 55809  87.9160 306.8784 0001387  89.6372 270.4920 13.19724376157640
ONEWEB-0646             
1 55810U 23029Q   26158.65590810  .00000114  00000+0  25336-3 0  9998
2 55810  87.9161 306.8749 0001611 103.1951 256.9362 13.19725437157636
ONEWEB-0648             
1 55811U 23029R   26158.74988484  .00000295  00000+0  76097-3 0  9997
2 55811  87.8959 291.5847 0000928  97.8111 262.3124 13.14505130158153
ONEWEB-0649             
1 55812U 23029S   26158.45371867  .00000148  00000+0  33821-3 0  9992
2 55812  87.9163 306.9134 0001552  95.1838 264.9472 13.19724277157640
ONEWEB-0650             
1 55813U 23029T   26158.67641514 -.00001775  00000+0 -44657-2 0  9993
2 55813  87.9168 306.8718 0001445 106.4685 253.6606 13.19733377157645
ONEWEB-0652             
1 55814U 23029U   26158.73086309 -.00000715  00000+0 -19627-2 0  9998
2 55814  87.8955 291.5963 0001457  87.9290 272.2006 13.14507219158123
ONEWEB-0653             
1 55815U 23029V   26158.63888693  .00000021  00000+0  21299-4 0  9992
2 55815  87.8957 291.6124 0001890  96.4850 263.6495 13.14503451158146
ONEWEB-0654             
1 55816U 23029W   26158.63413347 -.00000001  00000+0 -37323-4 0  9998
2 55816  87.8956 291.6095 0002218  94.5190 265.6193 13.14503830158164
ONEWEB-0656             
1 55817U 23029X   26158.73481742  .00000059  00000+0  11345-3 0  9990
2 55817  87.9193 276.3137 0002351  96.2785 263.8616 13.20772805159903
ONEWEB-0657             
1 55818U 23029Y   26158.67169991  .00000105  00000+0  22881-3 0  9992
2 55818  87.9161 306.8711 0002390 108.1341 252.0052 13.19724030157659
ONEWEB-0658             
1 55819U 23029Z   26158.66695848  .00000052  00000+0  98552-4 0  9997
2 55819  87.9171 306.8469 0001498 105.8765 254.2533 13.19724430157666
ONEWEB-0660             
1 55820U 23029AA  26158.76416841  .00000003  00000+0 -27590-4 0  9995
2 55820  87.8968 291.5757 0001615  92.5420 267.5895 13.14502690158163
