OBJECT_NAME,OBJECT_ID,EPOCH,MEAN_MOTION,ECCENTRICITY,INCLINATION,RA_OF_ASC_NODE,ARG_OF_PERICENTER,MEAN_ANOMALY,EPHEMERIS_TYPE,CLASSIFICATION_TYPE,NORAD_CAT_ID,ELEMENT_SET_NO,REV_AT_EPOCH,BSTAR,MEAN_MOTION_DOT,MEAN_MOTION_DDOT
STARLINK-5811,2023-028AY,2026-06-07T18:04:49.497888,14.98327898,.0002794,69.9992,337.5028,269.4261,90.6578,0,U,55787,999,18051,-.22867E-4,-.366E-5,0
STARLINK-5804,2023-028AZ,2026-06-07T17:58:50.689056,14.98326137,.0002565,69.9990,337.4882,263.9197,96.1669,0,U,55788,999,18051,.62721E-4,.655E-5,0
STARLINK-5815,2023-028BA,2026-06-07T18:58:52.947840,14.98328699,.0002884,69.9993,337.2311,271.5212,88.5616,0,U,55789,999,18052,-.11851E-5,-.107E-5,0
STARLINK-5813,2023-028BB,2026-06-07T15:52:51.642048,14.98329941,.0002982,69.9995,337.5840,268.7919,91.2898,0,U,55790,999,18050,.19109E-4,.135E-5,0
STARLINK-5807,2023-028BC,2026-06-07T17:46:47.682624,14.98337322,.000301,69.9996,337.4587,267.9176,92.1638,0,U,55791,999,18051,-.79548E-4,-.1042E-4,0
ONEWEB-0530,2023-029A,2026-06-07T16:42:22.246848,13.20770789,.0002349,87.9180,276.3616,95.4532,264.6869,0,U,55796,999,15989,-.60425E-4,-.12E-6,0
ONEWEB-0534,2023-029B,2026-06-07T18:14:29.037984,13.20771145,.0001802,87.9184,276.3493,98.2259,261.9079,0,U,55797,999,15990,.37173E-4,.28E-6,0
ONEWEB-0556,2023-029C,2026-06-07T16:35:06.529056,13.20772396,.0001956,87.9179,276.3628,75.0451,285.0898,0,U,55798,999,15989,-.73121E-4,-.17E-6,0
ONEWEB-0562,2023-029D,2026-06-07T18:04:46.620768,13.20770616,.0002519,87.9180,276.3313,84.3212,275.8208,0,U,55799,999,15990,.22424E-3,.104E-5,0
ONEWEB-0563,2023-029E,2026-06-07T17:57:31.638240,13.20771895,.0001706,87.9179,276.3627,99.6657,260.4669,0,U,55800,999,15989,.61152E-4,.38E-6,0
ONEWEB-0564,2023-029F,2026-06-07T17:47:49.373088,13.20770867,.0002252,87.9184,276.3375,93.1308,267.0083,0,U,55801,999,15990,.26683E-3,.121E-5,0
ONEWEB-0638,2023-029G,2026-06-07T17:25:36.304032,13.14501645,.0001943,87.8946,291.6390,83.2085,276.9266,0,U,55802,999,15815,-.11968E-3,-.32E-6,0
ONEWEB-0639,2023-029H,2026-06-07T16:57:17.292096,13.19725235,.0000906,87.9162,306.8655,111.4606,248.6623,0,U,55803,999,15765,.22926E-3,.105E-5,0
ONEWEB-0640,2023-029J,2026-06-07T17:39:18.253152,13.14502109,.0001629,87.8950,291.6279,77.9481,282.1831,0,U,55804,999,15817,.53901E-3,.213E-5,0
ONEWEB-0641,2023-029K,2026-06-07T16:50:26.961216,13.19724258,.0001669,87.9168,306.8548,99.2959,260.8362,0,U,55805,999,15766,.14505E-3,.71E-6,0
ONEWEB-0642,2023-029L,2026-06-07T09:26:55.723200,13.19725092,.0001176,87.9157,306.9288,118.8337,241.2914,0,U,55806,999,15761,-.22733E-3,-.78E-6,0
ONEWEB-0643,2023-029M,2026-06-07T07:47:52.412352,13.14503055,.0001532,87.8946,291.6971,120.2257,239.9024,0,U,55807,999,15809,-.1922E-3,-.58E-6,0
ONEWEB-0644,2023-029N,2026-06-07T09:20:05.653248,13.19724340,.0001557,87.9162,306.9314,104.3313,255.7992,0,U,55808,999,15761,.12465E-4,.18E-6,0
ONEWEB-0645,2023-029P,2026-06-07T15:19:27.802272,13.19724376,.0001387,87.9160,306.8784,89.6372,270.4920,0,U,55809,999,15764,.25777E-4,.23E-6,0
ONEWEB-0646,2023-029Q,2026-06-07T15:44:30.459840,13.19725437,.0001611,87.9161,306.8749,103.1951,256.9362,0,U,55810,999,15763,.25336E-3,.114E-5,0
ONEWEB-0648,2023-029R,2026-06-07T17:59:50.050176,13.14505130,.0000928,87.8959,291.5847,97.8111,262.3124,0,U,55811,999,15815,.76097E-3,.295E-5,0
ONEWEB-0649,2023-029S,2026-06-07T10:53:21.293088,13.19724277,.0001552,87.9163,306.9134,95.1838,264.9472,0,U,55812,999,15764,.33821E-3,.148E-5,0
ONEWEB-0650,2023-029T,2026-06-07T16:14:02.268096,13.19733377,.0001445,87.9168,306.8718,106.4685,253.6606,0,U,55813,999,15764,-.44657E-2,-.1775E-4,0
ONEWEB-0652,2023-029U,2026-06-07T17:32:26.570976,13.14507219,.0001457,87.8955,291.5963,87.9290,272.2006,0,U,55814,999,15812,-.19627E-2,-.715E-5,0
ONEWEB-0653,2023-029V,2026-06-07T15:19:59.830752,13.14503451,.000189,87.8957,291.6124,96.4850,263.6495,0,U,55815,999,15814,.21299E-4,.21E-6,0
ONEWEB-0654,2023-029W,2026-06-07T15:13:09.131808,13.14503830,.0002218,87.8956,291.6095,94.5190,265.6193,0,U,55816,999,15816,-.37323E-4,-.1E-7,0
ONEWEB-0656,2023-029X,2026-06-07T17:38:08.225088,13.20772805,.0002351,87.9193,276.3137,96.2785,263.8616,0,U,55817,999,15990,.11345E-3,.59E-6,0
ONEWEB-0657,2023-029Y,2026-06-07T16:07:14.872224,13.19724030,.000239,87.9161,306.8711,108.1341,252.0052,0,U,55818,999,15765,.22881E-3,.105E-5,0
ONEWEB-0658,2023-029Z,2026-06-07T16:00:25.212672,13.19724430,.0001498,87.9171,306.8469,105.8765,254.2533,0,U,55819,999,15766,.98552E-4,.52E-6,0
ONEWEB-0660,2023-029AA,2026-06-07T18:20:24.150624,13.14502690,.0001615,87.8968,291.5757,92.5420,267.5895,0,U,55820,999,15816,-.2759E-4,.3E-7,0
